name,phone,postalZip,region
Mohammad Carson,1-477-643-2321,75768-162,Paraná
Maya Mcdaniel,1-667-746-3355,441822,São Paulo
Arsenio Yates,(986) 271-8277,8472,Nairnshire
Helen Ewing,(210) 281-6021,10915,Balochistan
Driscoll Hawkins,1-277-143-1024,916454,Vienna
Diana Aguilar,1-448-622-7698,6235-7414,Maule
Mia Trujillo,(702) 391-0244,1371-1515,Hertfordshire
Oscar Montoya,(453) 513-6184,51226,Upper Austria
Wendy Lyons,(744) 717-5214,135179,Gelderland
Aristotle Shaw,1-813-731-5790,58821,Xīnán
Cameran Nunez,1-724-272-3357,98699-235,Central Sulawesi
Kessie Boyle,(965) 754-3543,416531,Kirovohrad oblast
Tamara Parker,(631) 526-0190,97657,Diyarbakır
Cora Weeks,(347) 583-6359,7022,Mpumalanga
Neil Wheeler,1-321-541-6503,672163,Bicol Region
Theodore Newton,(824) 779-6632,31320,Nova Scotia
Dolan Richmond,(776) 975-7983,23223,Agder
Regina Hall,1-817-547-7066,622860,Soccsksargen
Charissa Foreman,(976) 647-6106,7348,Maharastra
Leila Willis,1-774-672-7105,13206-72045,Pernambuco
Rana Stokes,(348) 726-3996,82645,Utrecht
Roanna Sims,1-206-791-1631,215621,Brandenburg
Jordan Hoffman,1-452-704-6506,727569,West Lothian
Xantha Jarvis,(936) 574-2852,86-35,Sindh
Christen Burton,1-551-238-3736,85114-276,Agder
Ciara Witt,(227) 462-3477,23469,Niedersachsen
Tyler Barlow,1-325-737-5027,J84 8OO,Bauchi
Jada Blair,(833) 228-6875,48063,San José
Alfonso Gamble,(552) 515-4283,219314,Bretagne
Fulton Porter,1-670-816-2216,99277,Gelderland
Paul Houston,1-748-843-5753,3541 KG,Indiana
Patience Meyers,1-964-112-8448,6975,San José
Hyatt Lott,1-816-857-3155,309181,Cartago
Uriah Moon,1-588-987-2542,42465-868,Central Sulawesi
Meghan Wells,1-615-471-4518,0136,Zakarpattia oblast
Hashim Edwards,1-588-675-4511,A7W 1B9,Saarland
Hu Washington,(608) 231-7108,88439-523,Quảng Bình
Kibo Benjamin,1-371-858-3772,60-247,Małopolskie
Madaline Ball,1-262-487-1802,61338-33562,Gävleborgs län
Ralph Burnett,(858) 900-6155,24067-81821,North Island
Bruno Lambert,(415) 628-3107,95518-52765,Andhra Pradesh
Noble Klein,(597) 780-6606,214592,Oregon
Tad O'connor,1-763-851-3274,37981,Guanajuato
Yoshi Carson,1-431-843-0745,G5X 4R4,Balochistan
Leroy Reilly,(454) 786-7464,46756-88632,Brandenburg
Mia Bauer,1-767-218-7662,38674,Västra Götalands län
Hermione Daniel,(374) 684-4222,93234,Heredia
Chancellor Yang,(444) 816-0321,3864,İzmir
Josiah Freeman,(184) 853-8471,93574,Georgia
Connor Reyes,(724) 512-1717,44430,Ancash
Len Martin,1-834-822-3374,39724,Bangka Belitung Islands
Nyssa Abbott,(894) 633-2754,45455-88439,Tolima
Zeus Hoffman,(733) 522-2146,78325,West Region
Noelle Chaney,(758) 739-3501,34565,Louisiana
Ryder Baird,1-267-528-7668,48-831,Melilla
Claudia Clayton,(488) 857-9368,54-34,Oaxaca
Cameron Ward,1-487-424-0707,1310 ED,Azad Kashmir
Kadeem Marks,(846) 744-6441,700773,Connacht
Alexis Carr,1-517-838-1184,509467,Mazowieckie
Quinn Reese,1-608-498-9578,82478,Tyrol
Ava Wagner,1-563-681-4767,6638,Haute-Normandie
Levi Rodriquez,1-988-883-6083,8365 LN,Östergötlands län
Chloe Mccarthy,1-907-589-0272,14454-283,Brandenburg
Ori Barlow,1-827-523-5684,76338,Gloucestershire
Zane Hess,(729) 269-9569,3211,Carinthia
Felix Rosario,1-831-783-4871,6533,North West
Hilda Duke,(283) 161-5082,462734,Newfoundland and Labrador
Dominique Phelps,1-371-842-2395,30702,West-Vlaanderen
Yvette Burke,1-451-500-9552,726573,Caithness
Rudyard Snider,1-284-553-6799,89501,Lima
Cole Foley,1-647-952-3087,41-853,South Island
Robin Rocha,(326) 724-0839,55875,South Kalimantan
Leo Cooley,1-841-237-9007,05709,Guanacaste
Kessie Marquez,(635) 498-7813,241735,Northern Cape
Ryan Mann,(421) 578-2735,2422,Agder
Vernon Combs,(170) 833-2688,76587,Sindh
Cynthia Murphy,1-201-281-6547,1789,West Kalimantan
Reed Dotson,(785) 440-5736,2204-7439,Berlin
Kuame Stewart,(141) 914-9485,64403,South Jeolla
Murphy Daniels,1-616-520-4870,51307,Warmińsko-mazurskie
Hyatt Atkins,(346) 628-3945,50209,Suffolk
Hillary Mccall,(838) 345-5349,YJ16 8UK,Lào Cai
Hanae Tate,1-447-631-1743,442783,Bangsamoro
Buffy Hess,1-628-347-6813,91-14,Cao Bằng
Rose Crosby,1-375-624-8967,52524-53623,Central Region
Burton Colon,1-565-297-2336,U1M 7R4,Toscana
Iona Good,1-810-256-2675,6623,Dalarnas län
Elvis Poole,(511) 947-2643,9174,Central Visayas
Delilah Browning,(742) 512-6043,6323-2946,Huádōng
Katelyn Stone,1-770-523-6512,40S 0S5,New South Wales
Ifeoma Larson,1-364-271-2043,12678,New South Wales
Andrew Stokes,(699) 896-2363,249168,Cauca
Herrod Moody,(512) 195-8812,35-48,Nordrhein-Westphalen
Keane Sparks,1-446-571-3131,2585 YM,Gangwon
Henry Deleon,(546) 549-6635,80885,Central Luzon
Denton Foreman,(428) 547-6929,4103,Arkansas
Iola Petersen,1-559-521-3771,6232 BW,Calabarzon
Ian Mullen,1-228-597-3953,2552,Limón
Emmanuel Blevins,1-852-153-5063,28718,Viken
Ethan Santos,1-738-268-8734,42883,Lima
